[{"OBJECT_NAME":"FLOCK 4G-24","OBJECT_ID":"2025-009AE","EPOCH":"2026-03-09T17:24:07.838208","MEAN_MOTION":15.27784978,"ECCENTRICITY":0.0001802,"INCLINATION":97.4061,"RA_OF_ASC_NODE":151.514,"ARG_OF_PERICENTER":280.2808,"MEAN_ANOMALY":79.8228,"EPHEMERIS_TYPE":0,"CLASSIFICATION_TYPE":"U","NORAD_CAT_ID":62637,"ELEMENT_SET_NO":999,"REV_AT_EPOCH":6373,"BSTAR":0.00038996067,"MEAN_MOTION_DOT":0.00010513,"MEAN_MOTION_DDOT":0},{"OBJECT_NAME":"STARLINK-33672","OBJECT_ID":"2025-057V","EPOCH":"2026-03-09T21:47:58.734816","MEAN_MOTION":15.27589509,"ECCENTRICITY":0.00011355,"INCLINATION":43.0001,"RA_OF_ASC_NODE":29.3596,"ARG_OF_PERICENTER":270.1685,"MEAN_ANOMALY":89.9036,"EPHEMERIS_TYPE":0,"CLASSIFICATION_TYPE":"U","NORAD_CAT_ID":63326,"ELEMENT_SET_NO":999,"REV_AT_EPOCH":5581,"BSTAR":0.001208326,"MEAN_MOTION_DOT":0.00033148,"MEAN_MOTION_DDOT":0}]
